RS27S UTMN-2
1 57203U 23091AP  26177.72664287  .00012973  00000+0  41816-3 0  9991
2 57203  97.5090 245.0805 0008635  54.8424 305.3626 15.32274371166005
METEOR-M2-4
1 59051U 24039A   26177.74994760  .00000002  00000+0  20744-4 0  9999
2 59051  98.7014 136.9279 0007790 135.2995 224.8812 14.22430436120622
SONATE-2
1 59112U 24043Q   26177.38093513  .00041415  00000+0  52380-3 0  9991
2 59112  97.5531 328.3454 0007328 165.3783 194.7686 15.59385702129325
GRBBeta
1 60237U 24128C   26177.57781919  .00003256  00000+0  22893-3 0  9997
2 60237  61.9878 183.3174 0039451 136.6258 223.7951 15.06690888107681
Curium One
1 60242U 24128H   26177.68971118  .00006849  00000+0  39557-3 0  9993
2 60242  61.9764 172.1150 0038795 132.3567 228.0825 15.12621382107898
ROBUSTA-3A
1 60243U 24128J   26177.32907742  .00005597  00000+0  33331-3 0  9990
2 60243  61.9842 175.9128 0040139 130.0414 230.4214 15.11754630107805
CatSat
1 60246U 24125J   26177.57415220  .00061862  00000+0  76022-3 0  9993
2 60246  97.2083  30.2034 0022346 147.0819 213.1835 15.59778449108852
ARTIC WX
1 60543U 24149CD  26177.15379243  .00000858  00000+0  95019-4 0  9993
2 60543  97.6799 247.3632 0003662  87.1439 273.0198 14.89795586100635
HYPERVIEW-1G (RS66S)
1 61772U 24199AP  26177.70728368  .00160644  00000+0  91163-3 0  9995
2 61772  97.2856  57.9244 0005971 186.9309 173.1876 15.78556815136173
AO-123
1 61781U 24199AY  26177.61286361  .00007443  00000+0  21554-3 0  9991
2 61781  97.2996  46.1992 0011894 275.3488  84.6399 15.35802996135374
SAMSAT-IONOSPHERE
1 61784U 24199BB  26177.62932567  .00045342  00000+0  59385-3 0  9994
2 61784  97.2939  53.7433 0006656 229.1711 130.8968 15.58442670139031
LASARsat
1 62391U 24247Q   26177.53530899  .00029264  00000+0  57325-3 0  9992
2 62391  44.9728 209.6636 0007194  27.8989 332.2285 15.46893107 84767
CROCUBE
1 62394U 24247T   26175.39308509  .00030725  00000+0  56517-3 0  9994
2 62394  44.9701 218.9251 0007226  18.8099 341.3058 15.48681185 84464
JINJUSat 1B
1 63210U 25052A   26177.67197975  .00017004  00000+0  52202-3 0  9995
2 63210  97.4002  74.4412 0005155  70.7965 289.3835 15.33789504 71559
NUSHSAT 1
1 63211U 25052B   26177.70023781  .00020013  00000+0  56623-3 0  9998
2 63211  97.3978  75.0681 0004920  75.5488 284.6302 15.36331173 71609
TEVEL2-4
1 63213U 25052D   26177.70125990  .00018658  00000+0  55219-3 0  9997
2 63213  97.3900  74.1099 0004870  85.4721 274.7078 15.34932278 71570
TEVEL2-5
1 63214U 25052E   26177.65764458  .00018673  00000+0  55577-3 0  9994
2 63214  97.3899  74.0111 0004829  86.9960 273.1835 15.34752753 71568
TEVEL2-6
1 63215U 25052F   26177.67019081  .00018893  00000+0  56291-3 0  9990
2 63215  97.3903  74.0082 0004687  88.0082 272.1698 15.34718267 71560
TEVEL2-1
1 63217U 25052H   26177.24597688  .00020561  00000+0  62319-3 0  9992
2 63217  97.3872  73.1969 0005001  96.2961 263.8851 15.34157117 71489
TEVEL2-3
1 63218U 25052J   26177.69683875  .00017292  00000+0  52351-3 0  9998
2 63218  97.3879  73.6710 0004870  95.9562 264.2236 15.34230406 71555
TEVEL2-2
1 63219U 25052K   26177.44190834  .00020069  00000+0  60803-3 0  9997
2 63219  97.3873  73.3957 0005013  96.2979 263.8835 15.34174568 71518
TEVEL2-9
1 63237U 25052AD  26177.69258652  .00015944  00000+0  51470-3 0  9993
2 63237  97.3935  73.0013 0008293 105.3749 254.8409 15.32177387 71480
TEVEL2-7
1 63238U 25052AE  26177.67001963  .00015960  00000+0  52010-3 0  9992
2 63238  97.3940  72.8907 0008374 105.7247 254.4918 15.31873185 71471
TEVEL2-8
1 63239U 25052AF  26177.22110573  .00017980  00000+0  58597-3 0  9992
2 63239  97.3937  72.4192 0008385 107.6731 252.5427 15.31844407 71403
PARUS-T2
1 64560U 25135AJ  26177.57299634  .00004563  00000+0  41510-3 0  9996
2 64560  97.7735 292.1823 0000827 140.0097 220.1185 14.95695662 55312
Geoscan-1
1 64880U 25155E   26177.72747237  .00011886  00000+0  39953-3 0  9991
2 64880  97.4550 146.4732 0009347 133.6552 226.5466 15.30935666 82233
239Alferov
1 64881U 25155F   26177.68331962  .00014332  00000+0  44861-3 0  9994
2 64881  97.4550 147.0227 0009048 131.7269 228.4749 15.33183195 82265
Geoscan-2
1 64890U 25155Q   26177.71947183  .00010519  00000+0  35111-3 0  9997
2 64890  97.4549 146.6214 0008978 122.2172 237.9940 15.31201323 82241
Geoscan-4
1 64892U 25155S   26177.71885865  .00014574  00000+0  44951-3 0  9994
2 64892  97.4545 147.2507 0007950 134.5807 225.6085 15.33659012 82283
Geoscan-3
1 64893U 25155T   26177.70715223  .00017987  00000+0  51934-3 0  9994
2 64893  97.4533 147.6966 0007933 133.8468 226.3432 15.35700199 82313
SPIRONE
1 66657U 25274H   26177.70131337  .00002205  00000+0  21420-3 0  9998
2 66657  97.7480 106.8566 0011760 351.3411   8.7604 14.93584160 31642
K-HERO
1 66660U 25274L   26177.77023042  .00001859  00000+0  17946-3 0  9994
2 66660  97.7488 107.0928 0013764 353.8612   6.2437 14.93997722 31666
SNUGLITE-III DURI
1 66661U 25274M   26177.55684493  .00002096  00000+0  20148-3 0  9996
2 66661  97.7486 106.9029 0014394 355.2135   4.8945 14.94033198 31635
FORESAIL-1P
1 66778U 25276DS  26177.68183133  .00005118  00000+0  24930-3 0  9997
2 66778  97.4202 250.7789 0003907  84.1634 276.0046 15.18782211 31840
GALAPAGOS
1 67279U 25313AH  26177.47169242  .00007761  00000+0  33280-3 0  9992
2 67279  97.3927 251.9360 0013036 337.0084  23.0568 15.22941605 27361
Lobachevsky
1 67282U 25313AL  26177.74214598  .00010179  00000+0  43312-3 0  9995
2 67282  97.3926 252.3262 0009557 333.4148  26.6598 15.23155546 27414
LUCA
1 67287U 25313AR  26177.17515885  .00006553  00000+0  26777-3 0  9997
2 67287  97.3933 252.0407 0008359 332.2380  27.8410 15.24681056 27348
SAKHACUBE-CHOLBON
1 67290U 25313AU  26177.67480729  .00009811  00000+0  39498-3 0  9998
2 67290  97.3941 252.5915 0007975 329.3513  30.7258 15.25048387 27425
RS95S (QMR-KWT-2)
1 67291U 25313AV  26177.71969906  .00012844  00000+0  49374-3 0  9997
2 67291  97.3928 252.8310 0007430 325.6233  34.4524 15.26525470 27440
KNACKSAT-2
1 67683U 98067XZ  26177.44486485  .00049509  00000+0  58452-3 0  9999
2 67683  51.6280 247.8833 0008675 257.0459 102.9566 15.60782463 21720
Ten-Koh2
1 68261U 25241B   26177.65555196  .00004812  00000+0  20955-3 0  9990
2 68261  51.6684 274.5666 0005311 168.7980 191.3118 15.23997641 16356
JACK-002
1 68417U 26067B   26177.64465179  .00006889  00000+0  32762-3 0  9995
2 68417  97.4566 136.1184 0001007 164.8732 195.2533 15.19501148 13386
DISCO 2
1 68431U 26067R   26177.40426816  .00008707  00000+0  41666-3 0  9994
2 68431  97.4596 135.8694 0001793  28.2367 331.8964 15.19205651 13348
HADES-SA (SpinnyONE)
1 68446U 26067AG  26177.37722377  .00020916  00000+0  98949-3 0  9999
2 68446  97.4405 135.5372 0008717  58.2970 301.9113 15.19360418 13324
PARUS-6U1
1 68456U 26067AS  26177.61746731  .00005917  00000+0  29740-3 0  9994
2 68456  97.4551 135.8361 0006863  47.0255 313.1553 15.17610890 13367
SAL-E
1 68458U 26067AU  26177.67724437  .00007844  00000+0  38997-3 0  9996
2 68458  97.4476 135.8255 0007431  54.8248 305.3681 15.17886826 13377
FSI-SAT 2
1 68792U 26088A   26177.38319421  .00004224  00000+0  28616-3 0  9997
2 68792  97.5067 326.4123 0015745  78.2615 282.0378 15.06901913  9677
OrigamiSat 2
1 68795U 26088D   26177.38044786  .00012923  00000+0  81979-3 0  9995
2 68795  97.5066 326.5732 0015594  51.5285 308.7340 15.08931834  9688
ARICA 2
1 68796U 26088E   26177.38195530  .00004372  00000+0  28351-3 0  9994
2 68796  97.5062 326.5583 0016593  51.0809 309.1896 15.08494325  9686
WASEDA-SAT-ZERO-II
1 68797U 26088F   26177.37628735  .00006778  00000+0  43441-3 0  9991
2 68797  97.5059 326.5645 0016271  50.6889 309.5779 15.08736974  9681
MANGARO-II-Piscus
1 68798U 26088G   26177.36597593  .00004777  00000+0  30603-3 0  9991
2 68798  97.5069 326.5860 0020004  52.8554 307.4498 15.08845436  9683
Delfi-N3xt
1 39428U 13066N   26177.74838061  .00005087  00000-0  44373-3 0  9996
2 39428  97.8344  98.0513 0074335 173.5030 186.7172 14.95171954676052
IO-86
1 40931U          25360.30710720  .00000000  00000-0  12800-3 0    00
2 40931   6.0006 332.5373 0012733 338.8432   8.1437 14.79075515    01
LILIUM-4
1 71922C 26067AC  26089.50133053 -.00014632  00000 0 -74472-3 0    04
2 71922  97.4497  49.1617 0004341   5.9603 355.7042 15.16896692    16
TRANSIT 5B-5
1 00965U 64083D   26140.22132175  .00000058  00000-0  68520-4 0  9995
2 00965  90.0785 202.8139 0041495   2.6876  57.4259 13.57009955 39826
PARUS-T1
1 98707U 25009N   25063.20000000  .00000000  00000-0  00000-0 0    08
2 98707  97.4430 144.9801 0003811 149.1702 136.3402 15.16239457    06
T.MicroSat-1
1 98515U 25276Y   25347.12519372 +.00009703 +00000+0 +47621-3 0 00218
2 98515  97.4377  58.8963 0002080  99.7173 260.4296 15.18293117002180
ARICA-2
1 98329U 27001A   26113.71443610  .00000000  00000-0  29916-3 0    03
2 98329  97.5133 264.2063 0010953 206.3608 281.8662 15.08387874    01
CORIOLIS
1 27640U 03001A   26178.97832769  .00000100  00000+0  67523-4 0  9995
2 27640  98.7126 185.6983 0014010 177.0036 183.1227 14.19947593215750
